# From MPC 99822
330P/Catalina,e,15.5650,294.3755,186.9367,6.570934,0.0585145,0.55058872,353.3918,05/09.0/2016,2000,g 12.0,4.0
# From MPC 98566
331P/Gibbs,e,9.7401,216.8381,178.1649,3.003299,0.1893679,0.04092855,62.0381,05/09.0/2016,2000,g 12.0,4.0
# From MPC 99822
332P-A/Ikeya-Murakami,e,9.3870,3.7832,152.4488,3.086774,0.1817385,0.49042171,9.5796,05/09.0/2016,2000,g 18.0,4.0
# From MPEC 2016-EI8
332P-B/Ikeya-Murakami,e,9.3805,3.8028,152.3711,3.082329,0.1821317,0.48970701,359.9699,03/17.0/2016,2000,g 19.0,4.0
# From MPC 99822
332P-C/Ikeya-Murakami,e,9.3860,3.7835,152.4402,3.086740,0.1817415,0.49042662,9.5880,05/09.0/2016,2000,g 16.5,4.0
# From MPEC 2016-ED0
332P-D/Ikeya-Murakami,e,9.3761,3.7923,152.4393,3.081138,0.1822373,0.48977814,359.9486,03/17.0/2016,2000,g 19.0,4.0
# From MPEC 2016-ED0
332P-E/Ikeya-Murakami,e,9.3774,3.8228,152.2825,3.079877,0.1823493,0.48922008,359.9889,03/17.0/2016,2000,g 21.0,4.0
# From MPEC 2016-ED0
332P-F/Ikeya-Murakami,e,9.5293,3.4757,152.8203,3.163214,0.1751908,0.49918860,359.8501,03/17.0/2016,2000,g 21.0,4.0
# From MPEC 2016-ED0
332P-G/Ikeya-Murakami,e,9.2523,3.6955,154.4000,3.050519,0.1849880,0.49200362,359.9006,03/19.0/2016,2000,g 19.0,4.0
# From MPEC 2016-H35
332P-H/Ikeya-Murakami,e,9.3871,3.7796,152.4728,3.087909,0.1816382,0.49064163,359.9149,03/17.0/2016,2000,g 19.0,4.0
# From MPEC 2016-ED0
332P-I/Ikeya-Murakami,e,9.3791,3.8048,152.3297,3.081767,0.1821815,0.48955490,359.9360,03/17.0/2016,2000,g 20.5,2.0
# From MPEC 2016-EI8
332P-J/Ikeya-Murakami,e,9.4296,3.6729,152.7712,3.115165,0.1792596,0.49429435,359.8613,03/17.0/2016,2000,g 22.5,2.0
# From MPC 99822
333P/LINEAR,e,131.8771,115.5657,26.1449,4.224819,0.1134990,0.73604516,3.9849,05/09.0/2016,2000,g 15.0,4.0
# From MPC 99822
334P/NEAT,e,19.0621,92.6988,80.4837,6.518522,0.0592216,0.35802924,338.5911,05/09.0/2016,2000,g 10.5,4.0
# From MPC 99822
335P/Gibbs,e,7.2872,330.8597,162.3183,3.581291,0.1454269,0.54507161,26.9149,05/09.0/2016,2000,g 17.0,4.0
# From MPC 99822
336P/McNaught,e,17.8399,298.2975,308.4092,5.030119,0.0873648,0.44698423,336.4255,05/09.0/2016,2000,g 13.5,4.0
